{"type": "FeatureCollection", "features": [ {"type": "Feature", "properties": {"norad_id": 28659, "name": "DIRECTV 8", "group": "intelsat", "lat": 0.02029805816980513, "lon": 131.73579530394173, "alt_km": 35796.19355309, "timestamp": "2025-12-19T10:50:00.859167+00:00", "meta": {"OBJECT_NAME": "DIRECTV 8", "OBJECT_ID": "2005-019A", "EPOCH": "2025-12-18T23:00:06.340608", "MEAN_MOTION": 1.00271061, "ECCENTRICITY": 0.0002824, "INCLINATION": 0.0011, "RA_OF_ASC_NODE": 23.8533, "ARG_OF_PERICENTER": 254.1308, "MEAN_ANOMALY": 35.8187, "EPHEMERIS_TYPE": 0, "CLASSIFICATION_TYPE": "U", "NORAD_CAT_ID": 28659, "ELEMENT_SET_NO": 999, "REV_AT_EPOCH": 7526, "BSTAR": 0, "MEAN_MOTION_DOT": 2.6e-07, "MEAN_MOTION_DDOT": 0}, "tle": {"line1": "1 28659U 05019A   25352.95840672  .00000026  00000+0  00000+0 0  9999", "line2": "2 28659   0.0011  23.8533 0002824 254.1308  35.8187  1.00271061 75267"}}, "geometry": {"type": "Point", "coordinates": [131.73579530394173, 0.02029805816980513]}}, {"type": "Feature", "properties": {"norad_id": 28702, "name": "GALAXY 28 (G-28)", "group": "intelsat", "lat": 2.80759620446454, "lon": 162.0659308593813, "alt_km": 35790.433417500266, "timestamp": "2025-12-19T10:50:00.859179+00:00", "meta": {"OBJECT_NAME": "GALAXY 28 (G-28)", "OBJECT_ID": "2005-022A", "EPOCH": "2025-12-18T19:43:17.690592", "MEAN_MOTION": 1.00271015, "ECCENTRICITY": 0.0002935, "INCLINATION": 2.835, "RA_OF_ASC_NODE": 81.2126, "ARG_OF_PERICENTER": 191.9736, "MEAN_ANOMALY": 21.6294, "EPHEMERIS_TYPE": 0, "CLASSIFICATION_TYPE": "U", "NORAD_CAT_ID": 28702, "ELEMENT_SET_NO": 999, "REV_AT_EPOCH": 5016, "BSTAR": 0, "MEAN_MOTION_DOT": -1.65e-06, "MEAN_MOTION_DDOT": 0}, "tle": {"line1": "1 28702U 05022A   25352.82173253 -.00000165  00000+0  00000+0 0  9997", "line2": "2 28702   2.8350  81.2126 0002935 191.9736  21.6294  1.00271015 50167"}}, "geometry": {"type": "Point", "coordinates": [162.0659308593813, 2.80759620446454]}}, {"type": "Feature", "properties": {"norad_id": 29236, "name": "GALAXY 16 (G-16)", "group": "intelsat", "lat": 7.643647284643324e-05, "lon": 151.76369241552314, "alt_km": 35790.30764621464, "timestamp": "2025-12-19T10:50:00.859191+00:00", "meta": {"OBJECT_NAME": "GALAXY 16 (G-16)", "OBJECT_ID": "2006-023A", "EPOCH": "2025-12-18T23:05:50.790624", "MEAN_MOTION": 1.00271428, "ECCENTRICITY": 0.00024656, "INCLINATION": 0.0212, "RA_OF_ASC_NODE": 236.7094, "ARG_OF_PERICENTER": 28.2257, "MEAN_ANOMALY": 70.3422, "EPHEMERIS_TYPE": 0, "CLASSIFICATION_TYPE": "U", "NORAD_CAT_ID": 29236, "ELEMENT_SET_NO": 999, "REV_AT_EPOCH": 7116, "BSTAR": 0, "MEAN_MOTION_DOT": -1.02e-06, "MEAN_MOTION_DDOT": 0}, "tle": {"line1": "1 29236U 06023A   25352.96239341 -.00000102  00000+0  00000+0 0  9999", "line2": "2 29236   0.0212 236.7094 0002465  28.2257  70.3422  1.00271428 71161"}}, "geometry": {"type": "Point", "coordinates": [151.76369241552314, 7.643647284643324e-05]}}, {"type": "Feature", "properties": {"norad_id": 29494, "name": "DIRECTV 9S", "group": "intelsat", "lat": 1.8048749128005628, "lon": 149.54556165893564, "alt_km": 35792.505597192474, "timestamp": "2025-12-19T10:50:00.859207+00:00", "meta": {"OBJECT_NAME": "DIRECTV 9S", "OBJECT_ID": "2006-043A", "EPOCH": "2025-12-18T23:05:13.350912", "MEAN_MOTION": 1.00271791, "ECCENTRICITY": 0.00028112, "INCLINATION": 1.9554, "RA_OF_ASC_NODE": 83.1482, "ARG_OF_PERICENTER": 190.4314, "MEAN_ANOMALY": 59.3322, "EPHEMERIS_TYPE": 0, "CLASSIFICATION_TYPE": "U", "NORAD_CAT_ID": 29494, "ELEMENT_SET_NO": 999, "REV_AT_EPOCH": 4957, "BSTAR": 0, "MEAN_MOTION_DOT": -9e-07, "MEAN_MOTION_DDOT": 0}, "tle": {"line1": "1 29494U 06043A   25352.96196008 -.00000090  00000+0  00000+0 0  9995", "line2": "2 29494   1.9554  83.1482 0002811 190.4314  59.3322  1.00271791 49571"}}, "geometry": {"type": "Point", "coordinates": [149.54556165893564, 1.8048749128005628]}}, {"type": "Feature", "properties": {"norad_id": 31307, "name": "GALAXY 17 (G-17)", "group": "intelsat", "lat": 2.50528045526446, "lon": 165.76182296724826, "alt_km": 35783.99140801677, "timestamp": "2025-12-19T10:50:00.859220+00:00", "meta": {"OBJECT_NAME": "GALAXY 17 (G-17)", "OBJECT_ID": "2007-016B", "EPOCH": "2025-12-18T19:44:25.082592", "MEAN_MOTION": 1.00272251, "ECCENTRICITY": 0.00054677, "INCLINATION": 2.5147, "RA_OF_ASC_NODE": 82.2187, "ARG_OF_PERICENTER": 169.2663, "MEAN_ANOMALY": 47.3321, "EPHEMERIS_TYPE": 0, "CLASSIFICATION_TYPE": "U", "NORAD_CAT_ID": 31307, "ELEMENT_SET_NO": 999, "REV_AT_EPOCH": 6799, "BSTAR": 0, "MEAN_MOTION_DOT": -1.84e-06, "MEAN_MOTION_DDOT": 0}, "tle": {"line1": "1 31307U 07016B   25352.82251253 -.00000184  00000+0  00000+0 0  9995", "line2": "2 31307   2.5147  82.2187 0005467 169.2663  47.3321  1.00272251 67999"}}, "geometry": {"type": "Point", "coordinates": [165.76182296724826, 2.50528045526446]}}, {"type": "Feature", "properties": {"norad_id": 31862, "name": "DIRECTV 10", "group": "intelsat", "lat": 0.016312885855442695, "lon": 147.98314164719787, "alt_km": 35785.8470438799, "timestamp": "2025-12-19T10:50:00.859233+00:00", "meta": {"OBJECT_NAME": "DIRECTV 10", "OBJECT_ID": "2007-032A", "EPOCH": "2025-12-18T23:04:43.398624", "MEAN_MOTION": 1.00270613, "ECCENTRICITY": 2.114e-05, "INCLINATION": 0.0079, "RA_OF_ASC_NODE": 54.2864, "ARG_OF_PERICENTER": 143.5711, "MEAN_ANOMALY": 133.3348, "EPHEMERIS_TYPE": 0, "CLASSIFICATION_TYPE": "U", "NORAD_CAT_ID": 31862, "ELEMENT_SET_NO": 999, "REV_AT_EPOCH": 4378, "BSTAR": 0, "MEAN_MOTION_DOT": -7.8e-07, "MEAN_MOTION_DDOT": 0}, "tle": {"line1": "1 31862U 07032A   25352.96161341 -.00000078  00000+0  00000+0 0  9994", "line2": "2 31862   0.0079  54.2864 0000211 143.5711 133.3348  1.00270613 43780"}}, "geometry": {"type": "Point", "coordinates": [147.98314164719787, 0.016312885855442695]}}, {"type": "Feature", "properties": {"norad_id": 32253, "name": "INTELSAT 11 (IS-11)", "group": "intelsat", "lat": 0.35245972523295394, "lon": 86.91400762409876, "alt_km": 36166.417216913105, "timestamp": "2025-12-19T10:50:00.859245+00:00", "meta": {"OBJECT_NAME": "INTELSAT 11 (IS-11)", "OBJECT_ID": "2007-044B", "EPOCH": "2025-12-18T14:14:43.715328", "MEAN_MOTION": 0.99051433, "ECCENTRICITY": 0.00085662, "INCLINATION": 3.0947, "RA_OF_ASC_NODE": 80.9124, "ARG_OF_PERICENTER": 168.1752, "MEAN_ANOMALY": 251.9743, "EPHEMERIS_TYPE": 0, "CLASSIFICATION_TYPE": "U", "NORAD_CAT_ID": 32253, "ELEMENT_SET_NO": 999, "REV_AT_EPOCH": 6666, "BSTAR": 0, "MEAN_MOTION_DOT": -1e-07, "MEAN_MOTION_DDOT": 0}, "tle": {"line1": "1 32253U 07044B   25352.59356152 -.00000010  00000+0  00000+0 0  9993", "line2": "2 32253   3.0947  80.9124 0008566 168.1752 251.9743  0.99051433 66668"}}, "geometry": {"type": "Point", "coordinates": [86.91400762409876, 0.35245972523295394]}}, {"type": "Feature", "properties": {"norad_id": 32388, "name": "HORIZONS-2", "group": "intelsat", "lat": 2.1318953781309906, "lon": 176.96378387150665, "alt_km": 35788.57072326152, "timestamp": "2025-12-19T10:50:00.859257+00:00", "meta": {"OBJECT_NAME": "HORIZONS-2", "OBJECT_ID": "2007-063B", "EPOCH": "2025-12-18T19:47:32.284608", "MEAN_MOTION": 1.00272348, "ECCENTRICITY": 0.00045697, "INCLINATION": 2.1366, "RA_OF_ASC_NODE": 82.8971, "ARG_OF_PERICENTER": 192.688, "MEAN_ANOMALY": 35.1967, "EPHEMERIS_TYPE": 0, "CLASSIFICATION_TYPE": "U", "NORAD_CAT_ID": 32388, "ELEMENT_SET_NO": 999, "REV_AT_EPOCH": 6600, "BSTAR": 0, "MEAN_MOTION_DOT": -2.3e-06, "MEAN_MOTION_DDOT": 0}, "tle": {"line1": "1 32388U 07063B   25352.82467922 -.00000230  00000+0  00000+0 0  9991", "line2": "2 32388   2.1366  82.8971 0004569 192.6880  35.1967  1.00272348 66007"}}, "geometry": {"type": "Point", "coordinates": [176.96378387150665, 2.1318953781309906]}}, {"type": "Feature", "properties": {"norad_id": 32729, "name": "DIRECTV 11", "group": "intelsat", "lat": 0.0003412068042490446, "lon": 151.6088535327823, "alt_km": 35783.886212731944, "timestamp": "2025-12-19T10:50:00.859269+00:00", "meta": {"OBJECT_NAME": "DIRECTV 11", "OBJECT_ID": "2008-013A", "EPOCH": "2025-12-18T14:32:04.553664", "MEAN_MOTION": 1.00272086, "ECCENTRICITY": 5.406e-05, "INCLINATION": 0.0315, "RA_OF_ASC_NODE": 212.3595, "ARG_OF_PERICENTER": 318.9842, "MEAN_ANOMALY": 34.9588, "EPHEMERIS_TYPE": 0, "CLASSIFICATION_TYPE": "U", "NORAD_CAT_ID": 32729, "ELEMENT_SET_NO": 999, "REV_AT_EPOCH": 4378, "BSTAR": 0, "MEAN_MOTION_DOT": -1.01e-06, "MEAN_MOTION_DDOT": 0}, "tle": {"line1": "1 32729U 08013A   25352.60560826 -.00000101  00000+0  00000+0 0  9996", "line2": "2 32729   0.0315 212.3595 0000540 318.9842  34.9588  1.00272086 43780"}}, "geometry": {"type": "Point", "coordinates": [151.6088535327823, 0.0003412068042490446]}}, {"type": "Feature", "properties": {"norad_id": 32951, "name": "GALAXY 18 (G-18)", "group": "intelsat", "lat": 0.03593696819412683, "lon": 127.7666648575665, "alt_km": 35796.0179956031, "timestamp": "2025-12-19T10:50:00.859281+00:00", "meta": {"OBJECT_NAME": "GALAXY 18 (G-18)", "OBJECT_ID": "2008-024A", "EPOCH": "2025-12-18T22:58:58.948608", "MEAN_MOTION": 1.0027081, "ECCENTRICITY": 0.0002816, "INCLINATION": 0.0168, "RA_OF_ASC_NODE": 26.3678, "ARG_OF_PERICENTER": 245.7971, "MEAN_ANOMALY": 37.3884, "EPHEMERIS_TYPE": 0, "CLASSIFICATION_TYPE": "U", "NORAD_CAT_ID": 32951, "ELEMENT_SET_NO": 999, "REV_AT_EPOCH": 4404, "BSTAR": 0, "MEAN_MOTION_DOT": 5e-07, "MEAN_MOTION_DDOT": 0}, "tle": {"line1": "1 32951U 08024A   25352.95762672  .00000050  00000+0  00000+0 0  9998", "line2": "2 32951   0.0168  26.3678 0002816 245.7971  37.3884  1.00270810 44045"}}, "geometry": {"type": "Point", "coordinates": [127.7666648575665, 0.03593696819412683]}}]}